{
  "type": "FeatureCollection",
  "features": [
    {
      "type": "Feature",
      "properties": {
        "norad_id": 66697,
        "name": "IRIDE FM3",
        "group": "last-30-days",
        "lat": -17.357375365887645,
        "lon": 71.14999271658195,
        "alt_km": 517.1952945251105,
        "timestamp": "2025-12-23T05:02:10.749101+00:00",
        "meta_object_name": "IRIDE FM3",
        "meta_object_id": "2025-276AH",
        "meta_epoch": "2025-12-22T22:47:09.024000",
        "meta_mean_motion": 15.18165281,
        "meta_eccentricity": 0.00011639,
        "meta_inclination": 97.4391,
        "meta_ra_of_asc_node": 68.5533,
        "meta_arg_of_pericenter": 154.94,
        "meta_mean_anomaly": 205.189,
        "meta_ephemeris_type": 0,
        "meta_classification_type": "U",
        "meta_norad_cat_id": 66697,
        "meta_element_set_no": 999,
        "meta_rev_at_epoch": 367,
        "meta_bstar": 0.00058468093,
        "meta_mean_motion_dot": 0.00011888,
        "meta_mean_motion_ddot": 0,
        "tle_line1": "1 66697U 25276AH  25356.94941000  .00011888  00000+0  58468-3 0  9993",
        "tle_line2": "2 66697  97.4391  68.5533 0001163 154.9400 205.1890 15.18165281  3672"
      },
      "geometry": {
        "type": "Point",
        "coordinates": [
          71.14999271658195,
          -17.357375365887645
        ]
      }
    },
    {
      "type": "Feature",
      "properties": {
        "norad_id": 66698,
        "name": "IRIDE FM4",
        "group": "last-30-days",
        "lat": -82.48066269481235,
        "lon": 166.9200059465862,
        "alt_km": 524.4935541648392,
        "timestamp": "2025-12-23T05:02:10.749111+00:00",
        "meta_object_name": "IRIDE FM4",
        "meta_object_id": "2025-276AJ",
        "meta_epoch": "2025-12-22T15:11:00.371616",
        "meta_mean_motion": 15.16542107,
        "meta_eccentricity": 0.00031447,
        "meta_inclination": 97.4393,
        "meta_ra_of_asc_node": 68.213,
        "meta_arg_of_pericenter": 198.1981,
        "meta_mean_anomaly": 161.914,
        "meta_ephemeris_type": 0,
        "meta_classification_type": "U",
        "meta_norad_cat_id": 66698,
        "meta_element_set_no": 999,
        "meta_rev_at_epoch": 362,
        "meta_bstar": -0.020508134,
        "meta_mean_motion_dot": -0.00379692,
        "meta_mean_motion_ddot": 0,
        "tle_line1": "1 66698U 25276AJ  25356.63264319 -.00379692  00000+0 -20508-1 0  9995",
        "tle_line2": "2 66698  97.4393  68.2130 0003144 198.1981 161.9140 15.16542107  3626"
      },
      "geometry": {
        "type": "Point",
        "coordinates": [
          166.9200059465862,
          -82.48066269481235
        ]
      }
    },
    {
      "type": "Feature",
      "properties": {
        "norad_id": 66699,
        "name": "IRIDE FM5",
        "group": "last-30-days",
        "lat": -81.85095730172615,
        "lon": 134.6574043717082,
        "alt_km": 519.2738895530474,
        "timestamp": "2025-12-23T05:02:10.749124+00:00",
        "meta_object_name": "IRIDE FM5",
        "meta_object_id": "2025-276AK",
        "meta_epoch": "2025-12-22T21:30:16.479648",
        "meta_mean_motion": 15.17411387,
        "meta_eccentricity": 0.00025489,
        "meta_inclination": 97.4404,
        "meta_ra_of_asc_node": 68.4761,
        "meta_arg_of_pericenter": 262.0592,
        "meta_mean_anomaly": 98.0352,
        "meta_ephemeris_type": 0,
        "meta_classification_type": "U",
        "meta_norad_cat_id": 66699,
        "meta_element_set_no": 999,
        "meta_rev_at_epoch": 366,
        "meta_bstar": 0.0011659283,
        "meta_mean_motion_dot": 0.00023301,
        "meta_mean_motion_ddot": 0,
        "tle_line1": "1 66699U 25276AK  25356.89602407  .00023301  00000+0  11659-2 0  9997",
        "tle_line2": "2 66699  97.4404  68.4761 0002548 262.0592  98.0352 15.17411387  3663"
      },
      "geometry": {
        "type": "Point",
        "coordinates": [
          134.6574043717082,
          -81.85095730172615
        ]
      }
    },
    {
      "type": "Feature",
      "properties": {
        "norad_id": 66700,
        "name": "IRIDE FM6",
        "group": "last-30-days",
        "lat": -13.889681013067511,
        "lon": 70.67311329162193,
        "alt_km": 516.952703491902,
        "timestamp": "2025-12-23T05:02:10.749135+00:00",
        "meta_object_name": "IRIDE FM6",
        "meta_object_id": "2025-276AL",
        "meta_epoch": "2025-12-22T21:11:19.983552",
        "meta_mean_motion": 15.18219477,
        "meta_eccentricity": 0.00015384,
        "meta_inclination": 97.4422,
        "meta_ra_of_asc_node": 68.4991,
        "meta_arg_of_pericenter": 162.8639,
        "meta_mean_anomaly": 197.2647,
        "meta_ephemeris_type": 0,
        "meta_classification_type": "U",
        "meta_norad_cat_id": 66700,
        "meta_element_set_no": 999,
        "meta_rev_at_epoch": 366,
        "meta_bstar": 0.00064145129,
        "meta_mean_motion_dot": 0.00013071,
        "meta_mean_motion_ddot": 0,
        "tle_line1": "1 66700U 25276AL  25356.88287018  .00013071  00000+0  64145-3 0  9998",
        "tle_line2": "2 66700  97.4422  68.4991 0001538 162.8639 197.2647 15.18219477  3664"
      },
      "geometry": {
        "type": "Point",
        "coordinates": [
          70.67311329162193,
          -13.889681013067511
        ]
      }
    },
    {
      "type": "Feature",
      "properties": {
        "norad_id": 66701,
        "name": "IRIDE FM7",
        "group": "last-30-days",
        "lat": -81.87424625343311,
        "lon": 135.0680138431943,
        "alt_km": 519.0759241911774,
        "timestamp": "2025-12-23T05:02:10.749145+00:00",
        "meta_object_name": "IRIDE FM7",
        "meta_object_id": "2025-276AM",
        "meta_epoch": "2025-12-22T21:30:16.860672",
        "meta_mean_motion": 15.17382045,
        "meta_eccentricity": 0.00030776,
        "meta_inclination": 97.4421,
        "meta_ra_of_asc_node": 68.4822,
        "meta_arg_of_pericenter": 256.9365,
        "meta_mean_anomaly": 103.1525,
        "meta_ephemeris_type": 0,
        "meta_classification_type": "U",
        "meta_norad_cat_id": 66701,
        "meta_element_set_no": 999,
        "meta_rev_at_epoch": 366,
        "meta_bstar": 0.00064176994,
        "meta_mean_motion_dot": 0.00012767,
        "meta_mean_motion_ddot": 0,
        "tle_line1": "1 66701U 25276AM  25356.89602848  .00012767  00000+0  64177-3 0  9998",
        "tle_line2": "2 66701  97.4421  68.4822 0003077 256.9365 103.1525 15.17382045  3660"
      },
      "geometry": {
        "type": "Point",
        "coordinates": [
          135.0680138431943,
          -81.87424625343311
        ]
      }
    },
    {
      "type": "Feature",
      "properties": {
        "norad_id": 66702,
        "name": "IRIDE FM8",
        "group": "last-30-days",
        "lat": -81.44701804265368,
        "lon": 129.1118623736684,
        "alt_km": 519.1239186184803,
        "timestamp": "2025-12-23T05:02:10.749157+00:00",
        "meta_object_name": "IRIDE FM8",
        "meta_object_id": "2025-276AN",
        "meta_epoch": "2025-12-22T21:30:01.638720",
        "meta_mean_motion": 15.17387561,
        "meta_eccentricity": 0.00028995,
        "meta_inclination": 97.4399,
        "meta_ra_of_asc_node": 68.4748,
        "meta_arg_of_pericenter": 264.2723,
        "meta_mean_anomaly": 95.818,
        "meta_ephemeris_type": 0,
        "meta_classification_type": "U",
        "meta_norad_cat_id": 66702,
        "meta_element_set_no": 999,
        "meta_rev_at_epoch": 366,
        "meta_bstar": 0.00055705792,
        "meta_mean_motion_dot": 0.00011072,
        "meta_mean_motion_ddot": 0,
        "tle_line1": "1 66702U 25276AN  25356.89585230  .00011072  00000+0  55706-3 0  9990",
        "tle_line2": "2 66702  97.4399  68.4748 0002899 264.2723  95.8180 15.17387561  3665"
      },
      "geometry": {
        "type": "Point",
        "coordinates": [
          129.1118623736684,
          -81.44701804265368
        ]
      }
    },
    {
      "type": "Feature",
      "properties": {
        "norad_id": 66703,
        "name": "PELICAN-6",
        "group": "last-30-days",
        "lat": -76.60368559427906,
        "lon": 102.06855437875114,
        "alt_km": 520.70215805321,
        "timestamp": "2025-12-23T05:02:10.749167+00:00",
        "meta_object_name": "PELICAN-6",
        "meta_object_id": "2025-276AP",
        "meta_epoch": "2025-12-22T21:28:10.777152",
        "meta_mean_motion": 15.17330982,
        "meta_eccentricity": 0.00010112,
        "meta_inclination": 97.4407,
        "meta_ra_of_asc_node": 68.4784,
        "meta_arg_of_pericenter": 243.7151,
        "meta_mean_anomaly": 116.3979,
        "meta_ephemeris_type": 0,
        "meta_classification_type": "U",
        "meta_norad_cat_id": 66703,
        "meta_element_set_no": 999,
        "meta_rev_at_epoch": 366,
        "meta_bstar": 0.00030189053,
        "meta_mean_motion_dot": 5.956e-05,
        "meta_mean_motion_ddot": 0,
        "tle_line1": "1 66703U 25276AP  25356.89456918  .00005956  00000+0  30189-3 0  9993",
        "tle_line2": "2 66703  97.4407  68.4784 0001011 243.7151 116.3979 15.17330982  3668"
      },
      "geometry": {
        "type": "Point",
        "coordinates": [
          102.06855437875114,
          -76.60368559427906
        ]
      }
    }
  ]
}